start=new Date('2022-09-06T00:00:00.000Z').valueOf();
sats=[{"REV_AT_EPOCH":"130","NORAD_CAT_ID":"52606","PERIOD":"95.439","MEAN_ANOMALY":"44.2030","REF_FRAME":"TEME","OBJECT_ID":"2022-052J","EPHEMERIS_TYPE":"0","SEMIMAJOR_AXIS":"6917.929","OBJECT_NAME":"STARLINK-3928","TIME_SYSTEM":"UTC","LAUNCH_DATE":"2022-05-14","CENTER_NAME":"EARTH","GP_ID":"211836612","DECAY_DATE":null,"TLE_LINE1":"1 52606U 22052J   22248.91667824  .00000134  00000-0  26547-4 0  9997","RA_OF_ASC_NODE":"268.7226","ARG_OF_PERICENTER":"44.8118","SITE":"AFETR","PERIAPSIS":"538.559","FILE":"3559723","ELEMENT_SET_NO":"999","EPOCH":"2022-09-05T22:00:00.999936","MEAN_MOTION_DOT":"0.00000134","MEAN_MOTION_DDOT":"0.0000000000000","MEAN_MOTION":"15.08824054","APOAPSIS":"541.029","ECCENTRICITY":"0.00017850","RCS_SIZE":"LARGE","CLASSIFICATION_TYPE":"U","MEAN_ELEMENT_THEORY":"SGP4","COUNTRY_CODE":"US","OBJECT_TYPE":"PAYLOAD","INCLINATION":"53.2158","TLE_LINE2":"2 52606  53.2158 268.7226 0001785  44.8118  44.2030 15.08824054  1309","BSTAR":"0.00002654700000"},{"REV_AT_EPOCH":"130","NORAD_CAT_ID":"52607","PERIOD":"95.440","MEAN_ANOMALY":"225.4037","EPHEMERIS_TYPE":"0","REF_FRAME":"TEME","OBJECT_ID":"2022-052K","SEMIMAJOR_AXIS":"6917.991","OBJECT_NAME":"STARLINK-3947","TIME_SYSTEM":"UTC","LAUNCH_DATE":"2022-05-14","GP_ID":"211836347","CENTER_NAME":"EARTH","DECAY_DATE":null,"RA_OF_ASC_NODE":"273.7235","TLE_LINE1":"1 52607U 22052K   22248.91667824  .00017404  00000-0  11100-2 0  9993","ARG_OF_PERICENTER":"56.1646","SITE":"AFETR","FILE":"3559723","PERIAPSIS":"538.834","ELEMENT_SET_NO":"999","EPOCH":"2022-09-05T22:00:00.999936","MEAN_MOTION_DDOT":"0.0000000000000","MEAN_MOTION_DOT":"0.00017404","APOAPSIS":"540.878","MEAN_MOTION":"15.08803728","ECCENTRICITY":"0.00014770","MEAN_ELEMENT_THEORY":"SGP4","RCS_SIZE":"LARGE","CLASSIFICATION_TYPE":"U","COUNTRY_CODE":"US","INCLINATION":"53.2151","OBJECT_TYPE":"PAYLOAD","BSTAR":"0.00111000000000","TLE_LINE2":"2 52607  53.2151 273.7235 0001477  56.1646 225.4037 15.08803728  1304"},{"EPOCH":"2022-09-05T22:00:00.999936","ELEMENT_SET_NO":"999","PERIAPSIS":"538.617","FILE":"3559723","SITE":"AFETR","ARG_OF_PERICENTER":"47.5744","BSTAR":"0.00228570000000","TLE_LINE2":"2 52608  53.2164 268.7220 0001804  47.5744  81.4565 15.08800968  1303","OBJECT_TYPE":"PAYLOAD","INCLINATION":"53.2164","COUNTRY_CODE":"US","RCS_SIZE":"LARGE","CLASSIFICATION_TYPE":"U","MEAN_ELEMENT_THEORY":"SGP4","APOAPSIS":"541.113","ECCENTRICITY":"0.00018040","MEAN_MOTION":"15.08800968","MEAN_MOTION_DOT":"0.00036238","MEAN_MOTION_DDOT":"0.0000000000000","MEAN_ANOMALY":"81.4565","PERIOD":"95.440","NORAD_CAT_ID":"52608","REV_AT_EPOCH":"130","TLE_LINE1":"1 52608U 22052L   22248.91667824  .00036238  00000-0  22857-2 0  9991","RA_OF_ASC_NODE":"268.7220","DECAY_DATE":null,"CENTER_NAME":"EARTH","GP_ID":"211837231","LAUNCH_DATE":"2022-05-14","TIME_SYSTEM":"UTC","OBJECT_NAME":"STARLINK-3979","SEMIMAJOR_AXIS":"6918.000","REF_FRAME":"TEME","OBJECT_ID":"2022-052L","EPHEMERIS_TYPE":"0"},{"MEAN_MOTION_DOT":"0.00044561","MEAN_MOTION_DDOT":"0.0000000000000","APOAPSIS":"541.154","ECCENTRICITY":"0.00017990","MEAN_MOTION":"15.08786345","CLASSIFICATION_TYPE":"U","RCS_SIZE":"LARGE","MEAN_ELEMENT_THEORY":"SGP4","COUNTRY_CODE":"US","OBJECT_TYPE":"PAYLOAD","INCLINATION":"53.2181","TLE_LINE2":"2 52609  53.2181 268.7354 0001799  43.9037 119.8104 15.08786345  1306","BSTAR":"0.00280440000000","ARG_OF_PERICENTER":"43.9037","SITE":"AFETR","FILE":"3559723","PERIAPSIS":"538.665","ELEMENT_SET_NO":"999","EPOCH":"2022-09-05T22:00:00.999936","REF_FRAME":"TEME","OBJECT_ID":"2022-052M","EPHEMERIS_TYPE":"0","SEMIMAJOR_AXIS":"6918.044","OBJECT_NAME":"STARLINK-3997","LAUNCH_DATE":"2022-05-14","TIME_SYSTEM":"UTC","CENTER_NAME":"EARTH","GP_ID":"211836906","DECAY_DATE":null,"TLE_LINE1":"1 52609U 22052M   22248.91667824  .00044561  00000-0  28044-2 0  9994","RA_OF_ASC_NODE":"268.7354","REV_AT_EPOCH":"130","NORAD_CAT_ID":"52609","PERIOD":"95.441","MEAN_ANOMALY":"119.8104"},{"COUNTRY_CODE":"US","MEAN_ELEMENT_THEORY":"SGP4","RCS_SIZE":"LARGE","CLASSIFICATION_TYPE":"U","APOAPSIS":"541.022","ECCENTRICITY":"0.00016740","MEAN_MOTION":"15.08801255","MEAN_MOTION_DDOT":"0.0000000000000","MEAN_MOTION_DOT":"0.00015803","BSTAR":"0.00100980000000","TLE_LINE2":"2 52610  53.2136 273.7266 0001674  39.9780 221.5813 15.08801255  1304","INCLINATION":"53.2136","OBJECT_TYPE":"PAYLOAD","ARG_OF_PERICENTER":"39.9780","ELEMENT_SET_NO":"999","EPOCH":"2022-09-05T22:00:00.999936","FILE":"3559723","PERIAPSIS":"538.706","SITE":"AFETR","OBJECT_NAME":"STARLINK-3998","SEMIMAJOR_AXIS":"6917.999","EPHEMERIS_TYPE":"0","REF_FRAME":"TEME","OBJECT_ID":"2022-052N","RA_OF_ASC_NODE":"273.7266","TLE_LINE1":"1 52610U 22052N   22248.91667824  .00015803  00000-0  10098-2 0  9993","DECAY_DATE":null,"GP_ID":"211836200","CENTER_NAME":"EARTH","TIME_SYSTEM":"UTC","LAUNCH_DATE":"2022-05-14","REV_AT_EPOCH":"130","MEAN_ANOMALY":"221.5813","PERIOD":"95.440","NORAD_CAT_ID":"52610"},{"APOAPSIS":"541.044","MEAN_MOTION":"15.08799841","ECCENTRICITY":"0.00017000","MEAN_MOTION_DDOT":"0.0000000000000","MEAN_MOTION_DOT":"0.00047725","COUNTRY_CODE":"US","MEAN_ELEMENT_THEORY":"SGP4","CLASSIFICATION_TYPE":"U","RCS_SIZE":"LARGE","INCLINATION":"53.2137","OBJECT_TYPE":"PAYLOAD","BSTAR":"0.00299980000000","TLE_LINE2":"2 52611  53.2137 273.7263 0001700  49.2904 252.2346 15.08799841  1304","ARG_OF_PERICENTER":"49.2904","SITE":"AFETR","ELEMENT_SET_NO":"999","EPOCH":"2022-09-05T22:00:00.999936","FILE":"3559723","PERIAPSIS":"538.692","SEMIMAJOR_AXIS":"6918.003","EPHEMERIS_TYPE":"0","REF_FRAME":"TEME","OBJECT_ID":"2022-052P","OBJECT_NAME":"STARLINK-3980","GP_ID":"211836761","CENTER_NAME":"EARTH","TIME_SYSTEM":"UTC","LAUNCH_DATE":"2022-05-14","RA_OF_ASC_NODE":"273.7263","TLE_LINE1":"1 52611U 22052P   22248.91667824  .00047725  00000-0  29998-2 0  9991","DECAY_DATE":null,"REV_AT_EPOCH":"130","NORAD_CAT_ID":"52611","MEAN_ANOMALY":"252.2346","PERIOD":"95.440"},{"TLE_LINE2":"2 52612  53.2179 268.7283 0001709  50.0572  98.9571 15.08821765  1303","BSTAR":"-0.00003846800000","OBJECT_TYPE":"PAYLOAD","INCLINATION":"53.2179","RCS_SIZE":"LARGE","CLASSIFICATION_TYPE":"U","MEAN_ELEMENT_THEORY":"SGP4","COUNTRY_CODE":"US","MEAN_MOTION_DOT":"-0.00000900","MEAN_MOTION_DDOT":"0.0000000000000","MEAN_MOTION":"15.08821765","APOAPSIS":"540.983","ECCENTRICITY":"0.00017090","FILE":"3559723","PERIAPSIS":"538.619","ELEMENT_SET_NO":"999","EPOCH":"2022-09-05T22:00:00.999936","SITE":"AFETR","ARG_OF_PERICENTER":"50.0572","DECAY_DATE":null,"TLE_LINE1":"1 52612U 22052Q   22248.91667824 -.00000900  00000-0 -38468-4 0  9992","RA_OF_ASC_NODE":"268.7283","TIME_SYSTEM":"UTC","LAUNCH_DATE":"2022-05-14","CENTER_NAME":"EARTH","GP_ID":"211837056","OBJECT_NAME":"STARLINK-4002","REF_FRAME":"TEME","OBJECT_ID":"2022-052Q","EPHEMERIS_TYPE":"0","SEMIMAJOR_AXIS":"6917.936","PERIOD":"95.439","MEAN_ANOMALY":"98.9571","NORAD_CAT_ID":"52612","REV_AT_EPOCH":"130"},{"EPHEMERIS_TYPE":"0","REF_FRAME":"TEME","OBJECT_ID":"2022-052R","SEMIMAJOR_AXIS":"6917.987","OBJECT_NAME":"STARLINK-3921","TIME_SYSTEM":"UTC","LAUNCH_DATE":"2022-05-14","GP_ID":"211836493","CENTER_NAME":"EARTH","DECAY_DATE":null,"RA_OF_ASC_NODE":"258.7312","TLE_LINE1":"1 52613U 22052R   22248.91667824  .00045861  00000-0  28837-2 0  9993","REV_AT_EPOCH":"130","NORAD_CAT_ID":"52613","PERIOD":"95.440","MEAN_ANOMALY":"167.8192","MEAN_MOTION_DDOT":"0.0000000000000","MEAN_MOTION_DOT":"0.00045861","ECCENTRICITY":"0.00014200","APOAPSIS":"540.835","MEAN_MOTION":"15.08805046","MEAN_ELEMENT_THEORY":"SGP4","RCS_SIZE":"LARGE","CLASSIFICATION_TYPE":"U","COUNTRY_CODE":"US","INCLINATION":"53.2135","OBJECT_TYPE":"PAYLOAD","BSTAR":"0.00288370000000","TLE_LINE2":"2 52613  53.2135 258.7312 0001420  76.2156 167.8192 15.08805046  1305","ARG_OF_PERICENTER":"76.2156","SITE":"AFETR","PERIAPSIS":"538.870","FILE":"3559723","ELEMENT_SET_NO":"999","EPOCH":"2022-09-05T22:00:00.999936"},{"NORAD_CAT_ID":"52614","MEAN_ANOMALY":"162.5623","PERIOD":"95.439","REV_AT_EPOCH":"130","GP_ID":"211836613","CENTER_NAME":"EARTH","TIME_SYSTEM":"UTC","LAUNCH_DATE":"2022-05-14","RA_OF_ASC_NODE":"258.7294","TLE_LINE1":"1 52614U 22052S   22248.91667824  .00030414  00000-0  19221-2 0  9999","DECAY_DATE":null,"SEMIMAJOR_AXIS":"6917.956","EPHEMERIS_TYPE":"0","OBJECT_ID":"2022-052S","REF_FRAME":"TEME","OBJECT_NAME":"STARLINK-3982","SITE":"AFETR","EPOCH":"2022-09-05T22:00:00.999936","ELEMENT_SET_NO":"999","FILE":"3559723","PERIAPSIS":"538.688","ARG_OF_PERICENTER":"61.4598","INCLINATION":"53.2133","OBJECT_TYPE":"PAYLOAD","BSTAR":"0.00192210000000","TLE_LINE2":"2 52614  53.2133 258.7294 0001638  61.4598 162.5623 15.08815112  1306","ECCENTRICITY":"0.00016380","APOAPSIS":"540.955","MEAN_MOTION":"15.08815112","MEAN_MOTION_DDOT":"0.0000000000000","MEAN_MOTION_DOT":"0.00030414","COUNTRY_CODE":"US","MEAN_ELEMENT_THEORY":"SGP4","RCS_SIZE":"LARGE","CLASSIFICATION_TYPE":"U"},{"INCLINATION":"53.2146","OBJECT_TYPE":"PAYLOAD","BSTAR":"0.00282750000000","TLE_LINE2":"2 52615  53.2146 273.7233 0001596  64.4438 257.0590 15.08798939  1300","MEAN_MOTION":"15.08798939","APOAPSIS":"540.975","ECCENTRICITY":"0.00015960","MEAN_MOTION_DDOT":"0.0000000000000","MEAN_MOTION_DOT":"0.00044948","COUNTRY_CODE":"US","MEAN_ELEMENT_THEORY":"SGP4","CLASSIFICATION_TYPE":"U","RCS_SIZE":"LARGE","SITE":"AFETR","ELEMENT_SET_NO":"999","EPOCH":"2022-09-05T22:00:00.999936","FILE":"3559723","PERIAPSIS":"538.767","ARG_OF_PERICENTER":"64.4438","GP_ID":"211836348","CENTER_NAME":"EARTH","TIME_SYSTEM":"UTC","LAUNCH_DATE":"2022-05-14","RA_OF_ASC_NODE":"273.7233","TLE_LINE1":"1 52615U 22052T   22248.91667824  .00044948  00000-0  28275-2 0  9996","DECAY_DATE":null,"SEMIMAJOR_AXIS":"6918.006","EPHEMERIS_TYPE":"0","OBJECT_ID":"2022-052T","REF_FRAME":"TEME","OBJECT_NAME":"STARLINK-4011","NORAD_CAT_ID":"52615","MEAN_ANOMALY":"257.0590","PERIOD":"95.440","REV_AT_EPOCH":"130"}];
